IRIDIUM 159             
1 43578U 18061K   24200.89312921  .00000048  00000+0  99248-5 0  9994
2 43578  86.3992 348.5274 0001926  96.0360 264.1055 14.34217964313293
IRIDIUM 180             
1 43922U 19002A   24201.52054288  .00000050  00000+0  10759-4 0  9995
2 43922  86.3963 285.1441 0002204  98.6692 261.4753 14.34217210289035
IRIDIUM 176             
1 43923U 19002B   24200.72282834  .00001906  00000+0  29832-3 0  9999
2 43923  86.6098 285.4972 0002299  98.5379 261.6098 14.72253074296486
IRIDIUM 168             
1 43924U 19002C   24201.51418670  .00000101  00000+0  28827-4 0  9997
2 43924  86.3963 285.2038 0001923  92.4426 267.6989 14.34214936288977
IRIDIUM 173             
1 43925U 19002D   24201.50151539  .00000020  00000+0  26379-7 0  9998
2 43925  86.3961 285.1272 0002009  95.6680 264.4745 14.34217662288961
IRIDIUM 169             
1 43926U 19002E   24201.39921851  .00000993  00000+0  31796-3 0  9992
2 43926  86.4247 316.7996 0004015 111.0883 249.0745 14.38614540289905
IRIDIUM 172             
1 43927U 19002F   24201.49516367  .00000291  00000+0  96706-4 0  9990
2 43927  86.3961 285.1357 0002229  91.6260 268.5191 14.34215916288961
IRIDIUM 175             
1 43928U 19002G   24201.39687305  .00000370  00000+0  54752-4 0  9994
2 43928  86.1484 256.5345 0002396  98.4635 261.6853 14.72253889296573
